{"type": "FeatureCollection", "features": [{"type": "Feature", "geometry": {"type": "Polygon", "coordinates": [[[-47.3512, -22.785], [-47.2876, -22.7537], [-47.2677, -22.7666], [-47.2108, -22.7429], [-47.1942, -22.7298], [-47.2043, -22.6983], [-47.2791, -22.6635], [-47.3353, -22.7129], [-47.3601, -22.6883], [-47.3881, -22.6993], [-47.3549, -22.7348], [-47.3512, -22.785]]]}, "properties": {"codarea": "3501608"}}, {"type": "Feature", "geometry": {"type": "Polygon", "coordinates": [[[-47.227, -22.57], [-47.2114, -22.6021], [-47.1281, -22.6133], [-47.0974, -22.6353], [-47.0875, -22.5877], [-47.0548, -22.5707], [-47.0531, -22.5167], [-47.0864, -22.4742], [-47.0956, -22.5079], [-47.1245, -22.5264], [-47.1688, -22.5171], [-47.2366, -22.5206], [-47.2118, -22.538], [-47.227, -22.57]]]}, "properties": {"codarea": "3503802"}}, {"type": "Feature", "geometry": {"type": "Polygon", "coordinates": [[[-47.0486, -23.0514], [-47.0722, -23.0235], [-47.0644, -22.992], [-47.0289, -22.9696], [-46.9821, -22.9042], [-46.9397, -22.9279], [-46.8785, -22.9275], [-46.8785, -22.9271], [-46.8507, -22.8766], [-46.8584, -22.8362], [-46.8908, -22.8171], [-46.9049, -22.7628], [-46.9574, -22.7292], [-46.9665, -22.7453], [-47.069, -22.7296], [-47.1013, -22.7504], [-47.0954, -22.7802], [-47.1199, -22.8103], [-47.1637, -22.8055], [-47.1577, -22.8609], [-47.1786, -22.9117], [-47.2468, -22.9095], [-47.2018, -22.93], [-47.2067, -22.9954], [-47.2331, -23.0072], [-47.1086, -23.0612], [-47.0883, -23.0555], [-47.0486, -23.0514]]]}, "properties": {"codarea": "3509502"}}, {"type": "Feature", "geometry": {"type": "Polygon", "coordinates": [[[-47.1942, -22.7298], [-47.1691, -22.6954], [-47.1384, -22.684], [-47.1035, -22.6901], [-47.0974, -22.6353], [-47.1281, -22.6133], [-47.2114, -22.6021], [-47.227, -22.57], [-47.2273, -22.6028], [-47.2791, -22.6635], [-47.2043, -22.6983], [-47.1942, -22.7298]]]}, "properties": {"codarea": "3512803"}}, {"type": "Feature", "geometry": {"type": "Polygon", "coordinates": [[[-47.136, -22.4699], [-47.1535, -22.4817], [-47.1889, -22.4327], [-47.2115, -22.4312], [-47.2529, -22.4769], [-47.2366, -22.5206], [-47.1688, -22.5171], [-47.1245, -22.5264], [-47.0956, -22.5079], [-47.0864, -22.4742], [-47.136, -22.4699]]]}, "properties": {"codarea": "3515152"}}, {"type": "Feature", "geometry": {"type": "Polygon", "coordinates": [[[-47.0548, -22.5707], [-47.0875, -22.5877], [-47.0974, -22.6353], [-47.1035, -22.6901], [-47.0739, -22.6803], [-47.0314, -22.619], [-47.0483, -22.5703], [-47.0548, -22.5707]]]}, "properties": {"codarea": "3519055"}}, {"type": "Feature", "geometry": {"type": "Polygon", "coordinates": [[[-47.2468, -22.9095], [-47.1786, -22.9117], [-47.1577, -22.8609], [-47.1892, -22.8583], [-47.2281, -22.8273], [-47.2577, -22.8988], [-47.2468, -22.9095]]]}, "properties": {"codarea": "3519071"}}, {"type": "Feature", "geometry": {"type": "Polygon", "coordinates": [[[-47.3007, -23.1128], [-47.2455, -23.1827], [-47.1959, -23.187], [-47.1293, -23.204], [-47.116, -23.2251], [-47.1128, -23.226], [-47.1136, -23.1793], [-47.1438, -23.1009], [-47.0868, -23.0909], [-47.0883, -23.0555], [-47.1086, -23.0612], [-47.2331, -23.0072], [-47.2549, -22.9979], [-47.2906, -23.0437], [-47.2777, -23.0708], [-47.3007, -23.1128]]]}, "properties": {"codarea": "3520509"}}, {"type": "Feature", "geometry": {"type": "Polygon", "coordinates": [[[-46.8653, -23.0764], [-46.8469, -23.0976], [-46.7926, -23.1028], [-46.7662, -23.0992], [-46.7279, -23.0392], [-46.7163, -22.9773], [-46.6816, -22.9302], [-46.7578, -22.9365], [-46.8785, -22.9271], [-46.8785, -22.9275], [-46.9262, -22.9745], [-46.9105, -23.0175], [-46.916, -23.0457], [-46.8653, -23.0764]]]}, "properties": {"codarea": "3523404"}}, {"type": "Feature", "geometry": {"type": "Polygon", "coordinates": [[[-46.9312, -22.6829], [-46.9393, -22.6577], [-46.9784, -22.6544], [-47.0147, -22.6086], [-47.0314, -22.619], [-47.0739, -22.6803], [-47.067, -22.7032], [-47.1026, -22.7239], [-47.1013, -22.7504], [-47.069, -22.7296], [-46.9665, -22.7453], [-46.9574, -22.7292], [-46.9312, -22.6829]]]}, "properties": {"codarea": "3524709"}}, {"type": "Feature", "geometry": {"type": "Polygon", "coordinates": [[[-47.2577, -22.8988], [-47.2747, -22.9075], [-47.3287, -22.8924], [-47.3418, -22.8603], [-47.3817, -22.8804], [-47.3962, -22.9045], [-47.3888, -22.9836], [-47.2906, -23.0437], [-47.2549, -22.9979], [-47.2331, -23.0072], [-47.2067, -22.9954], [-47.2018, -22.93], [-47.2468, -22.9095], [-47.2577, -22.8988]]]}, "properties": {"codarea": "3531803"}}, {"type": "Feature", "geometry": {"type": "Polygon", "coordinates": [[[-46.7609, -22.8479], [-46.798, -22.8344], [-46.8371, -22.8434], [-46.8584, -22.8362], [-46.8507, -22.8766], [-46.8785, -22.9271], [-46.7578, -22.9365], [-46.6816, -22.9302], [-46.6818, -22.8854], [-46.7609, -22.8479]]]}, "properties": {"codarea": "3532009"}}, {"type": "Feature", "geometry": {"type": "Polygon", "coordinates": [[[-47.3584, -22.8175], [-47.3038, -22.8217], [-47.2833, -22.801], [-47.2112, -22.7947], [-47.2108, -22.7429], [-47.2677, -22.7666], [-47.2876, -22.7537], [-47.3512, -22.785], [-47.3584, -22.8175]]]}, "properties": {"codarea": "3533403"}}, {"type": "Feature", "geometry": {"type": "Polygon", "coordinates": [[[-47.2112, -22.7947], [-47.1637, -22.8055], [-47.1199, -22.8103], [-47.0954, -22.7802], [-47.1013, -22.7504], [-47.1026, -22.7239], [-47.067, -22.7032], [-47.0739, -22.6803], [-47.1035, -22.6901], [-47.1384, -22.684], [-47.1691, -22.6954], [-47.1942, -22.7298], [-47.2108, -22.7429], [-47.2112, -22.7947]]]}, "properties": {"codarea": "3536505"}}, {"type": "Feature", "geometry": {"type": "Polygon", "coordinates": [[[-46.9574, -22.7292], [-46.9049, -22.7628], [-46.8908, -22.8171], [-46.8584, -22.8362], [-46.8371, -22.8434], [-46.8353, -22.7764], [-46.8874, -22.6856], [-46.9307, -22.6821], [-46.9312, -22.6829], [-46.9574, -22.7292]]]}, "properties": {"codarea": "3537107"}}, {"type": "Feature", "geometry": {"type": "Polygon", "coordinates": [[[-47.3512, -22.785], [-47.3549, -22.7348], [-47.3881, -22.6993], [-47.44, -22.715], [-47.4743, -22.7383], [-47.4905, -22.7243], [-47.4951, -22.7674], [-47.5302, -22.846], [-47.5071, -22.8525], [-47.4651, -22.8582], [-47.4417, -22.8887], [-47.3962, -22.9045], [-47.3817, -22.8804], [-47.3418, -22.8603], [-47.3694, -22.8451], [-47.3584, -22.8175], [-47.3512, -22.785]]]}, "properties": {"codarea": "3545803"}}, {"type": "Feature", "geometry": {"type": "Polygon", "coordinates": [[[-47.0314, -22.619], [-47.0147, -22.6086], [-46.9784, -22.6544], [-46.9393, -22.6577], [-46.9312, -22.6829], [-46.9307, -22.6821], [-46.8978, -22.6569], [-46.8987, -22.628], [-46.8637, -22.6025], [-46.8693, -22.5839], [-46.8717, -22.5476], [-46.918, -22.5758], [-46.9871, -22.5441], [-47.0483, -22.5703], [-47.0314, -22.619]]]}, "properties": {"codarea": "3548005"}}, {"type": "Feature", "geometry": {"type": "Polygon", "coordinates": [[[-47.1637, -22.8055], [-47.2112, -22.7947], [-47.2833, -22.801], [-47.3038, -22.8217], [-47.3584, -22.8175], [-47.3694, -22.8451], [-47.3418, -22.8603], [-47.3287, -22.8924], [-47.2747, -22.9075], [-47.2577, -22.8988], [-47.2281, -22.8273], [-47.1892, -22.8583], [-47.1577, -22.8609], [-47.1637, -22.8055]]]}, "properties": {"codarea": "3552403"}}, {"type": "Feature", "geometry": {"type": "Polygon", "coordinates": [[[-46.8785, -22.9275], [-46.9397, -22.9279], [-46.9821, -22.9042], [-47.0289, -22.9696], [-47.0644, -22.992], [-47.0722, -23.0235], [-47.0486, -23.0514], [-47.0377, -23.057], [-47.0012, -23.0061], [-46.9105, -23.0175], [-46.9262, -22.9745], [-46.8785, -22.9275]]]}, "properties": {"codarea": "3556206"}}, {"type": "Feature", "geometry": {"type": "Polygon", "coordinates": [[[-46.9954, -23.1155], [-46.9769, -23.0659], [-46.9425, -23.0666], [-46.916, -23.0457], [-46.9105, -23.0175], [-47.0012, -23.0061], [-47.0377, -23.057], [-46.9954, -23.1155]]]}, "properties": {"codarea": "3556701"}}]}